NORAD_CAT_ID,OBJECT_NAME,OBJECT_TYPE,EPOCH,MEAN_MOTION,ECCENTRICITY,INCLINATION,RA_OF_ASC_NODE,ARG_OF_PERICENTER,MEAN_ANOMALY,BSTAR,MEAN_MOTION_DOT,MEAN_MOTION_DDOT,TLE_LINE0,TLE_LINE1,TLE_LINE2,SEMIMAJOR_AXIS,PERIOD,APOGEE,PERIGEE,DECAYED
54163.0,STARLINK-5161,PAYLOAD,2022-11-14 14:00:01,15.73244636,0.000264,53.2179,57.1124,22.4929,16.05,-0.00035178,-0.00049804,0.0,0 STARLINK-5161,1 54163U 22141G   22318.58334491 -.00049804  00000-0 -35178-3 0  9996,2 54163  53.2179  57.1124 0002640  22.4929  16.0500 15.73244636  2799,6727.768,91.531,351.409,347.857,0.0
54163.0,STARLINK-5161,PAYLOAD,2022-11-14 22:00:00,15.73273521,0.0002679,53.2174,55.4596,21.7422,105.751,-0.0010148,-0.00141155,0.0,0 STARLINK-5161,1 54163U 22141G   22318.91667824 -.00141155  00000-0 -10148-2 0  9993,2 54163  53.2174  55.4596 0002679  21.7422 105.7510 15.73273521  1308,6727.686,91.529,351.353,347.74800000000016,0.0
54163.0,STARLINK-5161,PAYLOAD,2022-11-15 14:00:01,15.73230521,0.0002723999999999,53.2184,52.1644,14.1864,291.1569,-0.00046362,-0.00065284,0.0,0 STARLINK-5161,1 54163U 22141G   22319.58334491 -.00065284  00000-0 -46362-3 0  9994,2 54163  53.2184  52.1644 0002724  14.1864 291.1569 15.73230521  2942,6727.808000000001,91.531,351.506,347.841,0.0
54163.0,STARLINK-5161,PAYLOAD,2022-11-15 22:00:00,15.73207233,0.0002726,53.2181,50.5141,11.9787,22.2965,-3.6096e-05,-5.687e-05,0.0,0 STARLINK-5161,1 54163U 22141G   22319.91667824 -.00005687  00000-0 -36096-4 0  9995,2 54163  53.2181  50.5141 0002726  11.9787  22.2965 15.73207233  1300,6727.875,91.533,351.574,347.906,0.0
54163.0,STARLINK-5161,PAYLOAD,2022-11-16 04:00:00,15.73202863,0.0002577,53.2179,49.275,15.7109,355.2703,-9.0009e-05,-0.00013238,0.0,0 STARLINK-5161,1 54163U 22141G   22320.16667824 -.00013238  00000-0 -90009-4 0  9999,2 54163  53.2179  49.2750 0002577  15.7109 355.2703 15.73202863  3048,6727.887,91.533,351.486,348.01800000000014,0.0
54163.0,STARLINK-5161,PAYLOAD,2022-11-16 14:00:01,15.73194233,0.0002693,53.2177,47.2124,18.3933,193.8115,0.00034994,0.0004877,0.0,0 STARLINK-5161,1 54163U 22141G   22320.58335648  .00048770  00000-0  34994-3 0  9998,2 54163  53.2177  47.2124 0002693  18.3933 193.8115 15.73194233  1303,6727.9119999999975,91.534,351.588,347.965,0.0
54163.0,STARLINK-5161,PAYLOAD,2022-11-16 20:00:01,15.73250394,0.0002442,53.217,45.9728,16.3428,172.4942,-0.0004882,-0.00068738,0.0,0 STARLINK-5161,1 54163U 22141G   22320.83334491 -.00068738  00000-0 -48820-3 0  9992,2 54163  53.2170  45.9728 0002442  16.3428 172.4942 15.73250394  3146,6727.752,91.53,351.259,347.974,0.0
54163.0,STARLINK-5161,PAYLOAD,2022-11-16 22:00:08,15.73226719,0.0002298,53.2173,45.5586,16.8099,284.7357,-0.00026226,-0.00037312,0.0,0 STARLINK-5161,1 54163U 22141G   22320.91675926 -.00037312  00000-0 -26226-3 0  9992,2 54163  53.2173  45.5586 0002298  16.8099 284.7357 15.73226719  1302,6727.819,91.532,351.23,348.13800000000015,0.0
54163.0,STARLINK-5161,PAYLOAD,2022-11-17 04:00:00,15.73212178,0.00028,53.2184,44.327,16.2254,261.6704,0.00016129,0.00022088,0.0,0 STARLINK-5161,1 54163U 22141G   22321.16667824  .00022088  00000-0  16129-3 0  9991,2 54163  53.2184  44.3270 0002800  16.2254 261.6704 15.73212178  3190,6727.86,91.532,351.6090000000001,347.842,0.0
54163.0,STARLINK-5161,PAYLOAD,2022-11-17 12:00:00,15.73192611,0.0003123,53.2187,42.6794,18.9732,347.8789,0.00011669,0.00015783,0.0,0 STARLINK-5161,1 54163U 22141G   22321.50001157  .00015783  00000-0  11669-3 0  9998,2 54163  53.2187  42.6794 0003123  18.9732 347.8789 15.73192611  3250,6727.916,91.534,351.88199999999995,347.68,0.0
54163.0,STARLINK-5161,PAYLOAD,2022-11-17 14:00:01,15.73194509,0.0003181,53.2188,42.2675,18.5066,100.576,0.00012669,0.00017193,0.0,0 STARLINK-5161,1 54163U 22141G   22321.58334491  .00017193  00000-0  12669-3 0  9994,2 54163  53.2188  42.2675 0003181  18.5066 100.5760 15.73194509  1300,6727.911,91.534,351.916,347.636,0.0
54163.0,STARLINK-5161,PAYLOAD,2022-11-17 22:00:00,15.73226932,0.0003046,53.2186,40.6168,14.3267,193.6893,-0.0010633,-0.00147481,0.0,0 STARLINK-5161,1 54163U 22141G   22321.91667824 -.00147481  00000-0 -10633-2 0  9994,2 54163  53.2186  40.6168 0003046  14.3267 193.6893 15.73226932  1300,6727.818,91.532,351.733,347.634,0.0
54163.0,STARLINK-5161,PAYLOAD,2022-11-18 06:00:00,15.73128908,0.0002909,53.2188,38.9669,12.5763,284.333,0.00040635,0.00056627,0.0,0 STARLINK-5161,1 54163U 22141G   22322.25001157  .00056627  00000-0  40635-3 0  9998,2 54163  53.2188  38.9669 0002909  12.5763 284.3330 15.73128908  3362,6728.098000000001,91.537,351.92,348.006,0.0
54163.0,STARLINK-5161,PAYLOAD,2022-11-18 14:00:01,15.73145051,0.000322,53.2186,37.3196,12.8533,12.9202,0.00049557,0.00069354,0.0,0 STARLINK-5161,1 54163U 22141G   22322.58334491  .00069354  00000-0  49557-3 0  9997,2 54163  53.2186  37.3196 0003220  12.8533  12.9202 15.73145051  1306,6728.052,91.536,352.083,347.75,0.0
54163.0,STARLINK-5161,PAYLOAD,2022-11-18 20:00:01,15.73200476,0.0003228,53.2185,36.0818,12.6407,349.7918,0.00012323,0.0001671,0.0,0 STARLINK-5161,1 54163U 22141G   22322.83334491  .00016710  00000-0  12323-3 0  9994,2 54163  53.2185  36.0818 0003228  12.6407 349.7918 15.73200476  3465,6727.894,91.533,351.931,347.587,0.0
54163.0,STARLINK-5161,PAYLOAD,2022-11-18 22:00:00,15.73205156,0.0003155,53.2188,35.6688,13.3457,101.318,0.00014357,0.00019582,0.0,0 STARLINK-5161,1 54163U 22141G   22322.91667824  .00019582  00000-0  14357-3 0  9991,2 54163  53.2188  35.6688 0003155  13.3457 101.3180 15.73205156  1304,6727.88,91.533,351.86800000000005,347.62300000000016,0.0
54163.0,STARLINK-5161,PAYLOAD,2022-11-19 14:00:01,15.73221629,0.0003413999999999,53.2187,32.3693,10.4982,282.0995,0.00018323,0.000252,0.0,0 STARLINK-5161,1 54163U 22141G   22323.58334491  .00025200  00000-0  18323-3 0  9997,2 54163  53.2187  32.3693 0003414  10.4982 282.0995 15.73221629  1306,6727.834,91.532,351.995,347.402,0.0
54163.0,STARLINK-5161,PAYLOAD,2022-11-19 22:00:00,15.7320563,0.0003253999999999,53.219,30.7203,8.8183,12.7503,0.0001718,0.00023567,0.0,0 STARLINK-5161,1 54163U 22141G   22323.91667824  .00023567  00000-0  17180-3 0  9997,2 54163  53.2190  30.7203 0003254   8.8183  12.7503 15.73205630  1302,6727.879,91.533,351.93300000000005,347.555,0.0
54163.0,STARLINK-5161,PAYLOAD,2022-11-20 06:00:00,15.73264901,0.000327,53.219,29.0708,11.7379,98.7601,-0.00060659,-0.00085162,0.0,0 STARLINK-5161,1 54163U 22141G   22324.25001157 -.00085162  00000-0 -60659-3 0  9996,2 54163  53.2190  29.0708 0003270  11.7379  98.7601 15.73264901  3683,6727.71,91.529,351.775,347.375,0.0
54163.0,STARLINK-5161,PAYLOAD,2022-11-20 14:00:01,15.73200436,0.0003566,53.2189,27.4233,11.7571,187.7148,-0.00014531,-0.00020974,0.0,0 STARLINK-5161,1 54163U 22141G   22324.58334491 -.00020974  00000-0 -14531-3 0  9990,2 54163  53.2189  27.4233 0003566  11.7571 187.7148 15.73200436  1303,6727.894,91.533,352.158,347.36,0.0
54163.0,STARLINK-5161,PAYLOAD,2022-11-20 22:00:00,15.73201592,0.000336,53.2189,25.7722,8.8705,279.5197,-0.00045121,-0.00063498,0.0,0 STARLINK-5161,1 54163U 22141G   22324.91667824 -.00063498  00000-0 -45121-3 0  9993,2 54163  53.2189  25.7722 0003360   8.8705 279.5197 15.73201592  3787,6727.891,91.533,352.016,347.495,0.0
54163.0,STARLINK-5161,PAYLOAD,2022-11-21 14:00:01,15.73151678,0.0003685,53.2191,22.4753,9.1197,97.0607,0.00072557,0.00102269,0.0,0 STARLINK-5161,1 54163U 22141G   22325.58334491  .00102269  00000-0  72557-3 0  9999,2 54163  53.2191  22.4753 0003685   9.1197  97.0607 15.73151678  3897,6728.033,91.536,352.37699999999984,347.4190000000001,0.0
54163.0,STARLINK-5161,PAYLOAD,2022-11-21 22:00:00,15.73212511,0.0003549,53.219,20.8242,9.2514,185.8418,0.00033762,0.00047064,0.0,0 STARLINK-5161,1 54163U 22141G   22325.91667824  .00047064  00000-0  33762-3 0  9991,2 54163  53.2190  20.8242 0003549   9.2514 185.8418 15.73212511  1308,6727.86,91.532,352.112,347.337,0.0
54163.0,STARLINK-5161,PAYLOAD,2022-11-22 06:00:02,15.73276844,0.0003497,53.2188,19.175,9.1626,274.9532,-0.00049797,-0.00070186,0.0,0 STARLINK-5161,1 54163U 22141G   22326.25002315 -.00070186  00000-0 -49797-3 0  9995,2 54163  53.2188  19.1750 0003497   9.1626 274.9532 15.73276844  3998,6727.676,91.529,351.894,347.18800000000016,0.0
54163.0,STARLINK-5161,PAYLOAD,2022-11-22 14:00:01,15.73218364,0.0003756,53.2183,17.5273,5.7995,7.2986,-0.00011241,-0.00016388,0.0,0 STARLINK-5161,1 54163U 22141G   22326.58335648 -.00016388  00000-0 -11241-3 0  9996,2 54163  53.2183  17.5273 0003756   5.7995   7.2986 15.73218364  1300,6727.843000000003,91.532,352.235,347.181,0.0
54163.0,STARLINK-5161,PAYLOAD,2022-11-22 22:00:00,15.73198317,0.0003563,53.2184,15.876,2.5915,99.3891,-0.00028909,-0.0004101,0.0,0 STARLINK-5161,1 54163U 22141G   22326.91667824 -.00041010  00000-0 -28909-3 0  9996,2 54163  53.2184  15.8760 0003563   2.5915  99.3891 15.73198317  1308,6727.9,91.533,352.162,347.36800000000005,0.0
54163.0,STARLINK-5161,PAYLOAD,2022-11-23 06:00:00,15.73180646,0.0003609,53.2186,14.2268,4.1249,186.7574,0.00016802,0.00023009,0.0,0 STARLINK-5161,1 54163U 22141G   22327.25001157  .00023009  00000-0  16802-3 0  9990,2 54163  53.2186  14.2268 0003609   4.1249 186.7574 15.73180646  4156,6727.95,91.534,352.24300000000005,347.38699999999994,0.0
54163.0,STARLINK-5161,PAYLOAD,2022-11-23 14:00:01,15.73171614,0.0003941,53.2184,12.579,3.9,275.899,0.00064668,0.00091042,0.0,0 STARLINK-5161,1 54163U 22141G   22327.58334491  .00091042  00000-0  64668-3 0  9991,2 54163  53.2184  12.5790 0003941   3.9000 275.8990 15.73171614  1307,6727.976,91.535,352.49300000000005,347.19,0.0
54163.0,STARLINK-5161,PAYLOAD,2022-11-23 22:00:00,15.73238172,0.0003696,53.2183,10.9276,2.3412,6.395,-0.00038655,-0.00054634,0.0,0 STARLINK-5161,1 54163U 22141G   22327.91667824 -.00054634  00000-0 -38655-3 0  9992,2 54163  53.2183  10.9276 0003696   2.3412   6.3950 15.73238172  1300,6727.786,91.531,352.13800000000015,347.165,0.0
